{"type": "FeatureCollection", "features": [ {"type": "Feature", "properties": {"norad_id": 67131, "name": "ZIYUAN 3-04 (ZY 3-04)", "group": "last-30-days", "lat": 40.63627724635541, "lon": 67.86692098681529, "alt_km": 499.7758624445578, "timestamp": "2025-12-26T07:29:17.197056+00:00", "meta": {"OBJECT_NAME": "ZIYUAN 3-04 (ZY 3-04)", "OBJECT_ID": "2025-300A", "EPOCH": "2025-12-21T18:22:34.187808", "MEAN_MOTION": 15.21179479, "ECCENTRICITY": 0.00027623, "INCLINATION": 97.4922, "RA_OF_ASC_NODE": 69.8294, "ARG_OF_PERICENTER": 167.6924, "MEAN_ANOMALY": 192.438, "EPHEMERIS_TYPE": 0, "CLASSIFICATION_TYPE": "U", "NORAD_CAT_ID": 67131, "ELEMENT_SET_NO": 999, "REV_AT_EPOCH": 86, "BSTAR": 6.5769783e-05, "MEAN_MOTION_DOT": 1.396e-05, "MEAN_MOTION_DDOT": 0}, "tle": {"line1": "1 67131U 25300A   25355.76567347  .00001396  00000+0  65770-4 0  9990", "line2": "2 67131  97.4922  69.8294 0002762 167.6924 192.4380 15.21179479   860"}}, "geometry": {"type": "Point", "coordinates": [67.86692098681529, 40.63627724635541]}}, {"type": "Feature", "properties": {"norad_id": 67132, "name": "CZ-4B R/B", "group": "last-30-days", "lat": 47.13245172081913, "lon": -96.6317154303927, "alt_km": 472.4209445178576, "timestamp": "2025-12-26T07:29:17.197069+00:00", "meta": {"OBJECT_NAME": "CZ-4B R/B", "OBJECT_ID": "2025-300B", "EPOCH": "2025-12-18T16:13:04.609056", "MEAN_MOTION": 15.63831828, "ECCENTRICITY": 0.01741973, "INCLINATION": 97.5563, "RA_OF_ASC_NODE": 66.966, "ARG_OF_PERICENTER": 9.3582, "MEAN_ANOMALY": 351.0851, "EPHEMERIS_TYPE": 0, "CLASSIFICATION_TYPE": "U", "NORAD_CAT_ID": 67132, "ELEMENT_SET_NO": 999, "REV_AT_EPOCH": 40, "BSTAR": 0.00019566238, "MEAN_MOTION_DOT": 0.00040543, "MEAN_MOTION_DDOT": 2.652968e-06}, "tle": {"line1": "1 67132U 25300B   25352.67574779  .00040543  26530-5  19566-3 0  9995", "line2": "2 67132  97.5563  66.9660 0174197   9.3582 351.0851 15.63831828   407"}}, "geometry": {"type": "Point", "coordinates": [-96.6317154303927, 47.13245172081913]}}, {"type": "Feature", "properties": {"norad_id": 67133, "name": "KUIPER-00144", "group": "last-30-days", "lat": 13.044344303216112, "lon": 70.16977074511547, "alt_km": 459.71251112595564, "timestamp": "2025-12-26T07:29:17.197079+00:00", "meta": {"OBJECT_NAME": "KUIPER-00144", "OBJECT_ID": "2025-301A", "EPOCH": "2025-12-25T22:00:01.999584", "MEAN_MOTION": 15.35427011, "ECCENTRICITY": 0.00062387, "INCLINATION": 51.8705, "RA_OF_ASC_NODE": 61.5912, "ARG_OF_PERICENTER": 121.3318, "MEAN_ANOMALY": 228.9898, "EPHEMERIS_TYPE": 0, "CLASSIFICATION_TYPE": "U", "NORAD_CAT_ID": 67133, "ELEMENT_SET_NO": 999, "REV_AT_EPOCH": 179, "BSTAR": 0.00025090013, "MEAN_MOTION_DOT": 8.397e-05, "MEAN_MOTION_DDOT": 0}, "tle": {"line1": "1 67133U 25301A   25359.91668981  .00008397  00000+0  25090-3 0  9998", "line2": "2 67133  51.8705  61.5912 0006238 121.3318 228.9898 15.35427011  1792"}}, "geometry": {"type": "Point", "coordinates": [70.16977074511547, 13.044344303216112]}}, {"type": "Feature", "properties": {"norad_id": 67134, "name": "KUIPER-00164", "group": "last-30-days", "lat": 32.48147305076119, "lon": 89.62978227415151, "alt_km": 452.36320506040283, "timestamp": "2025-12-26T07:29:17.197089+00:00", "meta": {"OBJECT_NAME": "KUIPER-00164", "OBJECT_ID": "2025-301B", "EPOCH": "2025-12-25T22:00:01.999584", "MEAN_MOTION": 15.36127089, "ECCENTRICITY": 0.00031804, "INCLINATION": 51.8727, "RA_OF_ASC_NODE": 61.5376, "ARG_OF_PERICENTER": 104.2516, "MEAN_ANOMALY": 271.3994, "EPHEMERIS_TYPE": 0, "CLASSIFICATION_TYPE": "U", "NORAD_CAT_ID": 67134, "ELEMENT_SET_NO": 999, "REV_AT_EPOCH": 257, "BSTAR": 0.00032534037, "MEAN_MOTION_DOT": 0.0001126, "MEAN_MOTION_DDOT": 0}, "tle": {"line1": "1 67134U 25301B   25359.91668981  .00011260  00000+0  32534-3 0  9993", "line2": "2 67134  51.8727  61.5376 0003180 104.2516 271.3994 15.36127089  2573"}}, "geometry": {"type": "Point", "coordinates": [89.62978227415151, 32.48147305076119]}}, {"type": "Feature", "properties": {"norad_id": 67135, "name": "KUIPER-00175", "group": "last-30-days", "lat": 43.36441798921021, "lon": 107.46837048712298, "alt_km": 448.79432931416795, "timestamp": "2025-12-26T07:29:17.197101+00:00", "meta": {"OBJECT_NAME": "KUIPER-00175", "OBJECT_ID": "2025-301C", "EPOCH": "2025-12-25T22:00:01.999584", "MEAN_MOTION": 15.36582767, "ECCENTRICITY": 0.00022103, "INCLINATION": 51.8745, "RA_OF_ASC_NODE": 61.4961, "ARG_OF_PERICENTER": 59.4048, "MEAN_ANOMALY": 333.2915, "EPHEMERIS_TYPE": 0, "CLASSIFICATION_TYPE": "U", "NORAD_CAT_ID": 67135, "ELEMENT_SET_NO": 999, "REV_AT_EPOCH": 246, "BSTAR": 0.00035902002, "MEAN_MOTION_DOT": 0.00012655, "MEAN_MOTION_DDOT": 0}, "tle": {"line1": "1 67135U 25301C   25359.91668981  .00012655  00000+0  35902-3 0  9995", "line2": "2 67135  51.8745  61.4961 0002210  59.4048 333.2915 15.36582767  2464"}}, "geometry": {"type": "Point", "coordinates": [107.46837048712298, 43.36441798921021]}}, {"type": "Feature", "properties": {"norad_id": 67136, "name": "KUIPER-00179", "group": "last-30-days", "lat": 37.05261319140625, "lon": 95.97845195193582, "alt_km": 450.59574482004336, "timestamp": "2025-12-26T07:29:17.197111+00:00", "meta": {"OBJECT_NAME": "KUIPER-00179", "OBJECT_ID": "2025-301D", "EPOCH": "2025-12-25T22:00:01.999584", "MEAN_MOTION": 15.36245645, "ECCENTRICITY": 0.00030027, "INCLINATION": 51.8741, "RA_OF_ASC_NODE": 61.52, "ARG_OF_PERICENTER": 83.4713, "MEAN_ANOMALY": 298.9314, "EPHEMERIS_TYPE": 0, "CLASSIFICATION_TYPE": "U", "NORAD_CAT_ID": 67136, "ELEMENT_SET_NO": 999, "REV_AT_EPOCH": 257, "BSTAR": 0.00037698224, "MEAN_MOTION_DOT": 0.00013163, "MEAN_MOTION_DDOT": 0}, "tle": {"line1": "1 67136U 25301D   25359.91668981  .00013163  00000+0  37698-3 0  9995", "line2": "2 67136  51.8741  61.5200 0003002  83.4713 298.9314 15.36245645  2577"}}, "geometry": {"type": "Point", "coordinates": [95.97845195193582, 37.05261319140625]}}, {"type": "Feature", "properties": {"norad_id": 67137, "name": "KUIPER-00181", "group": "last-30-days", "lat": -15.902560340789563, "lon": 46.826075067971495, "alt_km": 471.79681948395137, "timestamp": "2025-12-26T07:29:17.197124+00:00", "meta": {"OBJECT_NAME": "KUIPER-00181", "OBJECT_ID": "2025-301E", "EPOCH": "2025-12-25T22:00:01.999584", "MEAN_MOTION": 15.34417071, "ECCENTRICITY": 0.00100049, "INCLINATION": 51.864, "RA_OF_ASC_NODE": 61.665, "ARG_OF_PERICENTER": 142.6869, "MEAN_ANOMALY": 171.9681, "EPHEMERIS_TYPE": 0, "CLASSIFICATION_TYPE": "U", "NORAD_CAT_ID": 67137, "ELEMENT_SET_NO": 999, "REV_AT_EPOCH": 254, "BSTAR": 0.0001802528, "MEAN_MOTION_DOT": 5.73e-05, "MEAN_MOTION_DDOT": 0}, "tle": {"line1": "1 67137U 25301E   25359.91668981  .00005730  00000+0  18025-3 0  9990", "line2": "2 67137  51.8640  61.6650 0010004 142.6869 171.9681 15.34417071  2542"}}, "geometry": {"type": "Point", "coordinates": [46.826075067971495, -15.902560340789563]}}, {"type": "Feature", "properties": {"norad_id": 67138, "name": "KUIPER-00183", "group": "last-30-days", "lat": -24.97906929181202, "lon": 38.31264297227929, "alt_km": 474.68612860829853, "timestamp": "2025-12-26T07:29:17.197134+00:00", "meta": {"OBJECT_NAME": "KUIPER-00183", "OBJECT_ID": "2025-301F", "EPOCH": "2025-12-25T22:00:01.999584", "MEAN_MOTION": 15.34070602, "ECCENTRICITY": 0.00112143, "INCLINATION": 51.8613, "RA_OF_ASC_NODE": 61.6881, "ARG_OF_PERICENTER": 147.4074, "MEAN_ANOMALY": 155.6094, "EPHEMERIS_TYPE": 0, "CLASSIFICATION_TYPE": "U", "NORAD_CAT_ID": 67138, "ELEMENT_SET_NO": 999, "REV_AT_EPOCH": 255, "BSTAR": 0.00015822463, "MEAN_MOTION_DOT": 4.926e-05, "MEAN_MOTION_DDOT": 0}, "tle": {"line1": "1 67138U 25301F   25359.91668981  .00004926  00000+0  15822-3 0  9999", "line2": "2 67138  51.8613  61.6881 0011214 147.4074 155.6094 15.34070602  2557"}}, "geometry": {"type": "Point", "coordinates": [38.31264297227929, -24.97906929181202]}}, {"type": "Feature", "properties": {"norad_id": 67139, "name": "KUIPER-00184", "group": "last-30-days", "lat": -12.456343181659301, "lon": 49.75681042037305, "alt_km": 470.5533211363072, "timestamp": "2025-12-26T07:29:17.197146+00:00", "meta": {"OBJECT_NAME": "KUIPER-00184", "OBJECT_ID": "2025-301G", "EPOCH": "2025-12-25T22:00:01.999584", "MEAN_MOTION": 15.34411365, "ECCENTRICITY": 0.00090174, "INCLINATION": 51.8627, "RA_OF_ASC_NODE": 61.6558, "ARG_OF_PERICENTER": 139.8828, "MEAN_ANOMALY": 179.2616, "EPHEMERIS_TYPE": 0, "CLASSIFICATION_TYPE": "U", "NORAD_CAT_ID": 67139, "ELEMENT_SET_NO": 999, "REV_AT_EPOCH": 266, "BSTAR": 0.00026928685, "MEAN_MOTION_DOT": 8.749e-05, "MEAN_MOTION_DDOT": 0}, "tle": {"line1": "1 67139U 25301G   25359.91668981  .00008749  00000+0  26929-3 0  9997", "line2": "2 67139  51.8627  61.6558 0009017 139.8828 179.2616 15.34411365  2663"}}, "geometry": {"type": "Point", "coordinates": [49.75681042037305, -12.456343181659301]}}, {"type": "Feature", "properties": {"norad_id": 67140, "name": "KUIPER-00186", "group": "last-30-days", "lat": 1.6911665075154776, "lon": 61.043843220066854, "alt_km": 464.7228527856996, "timestamp": "2025-12-26T07:29:17.197156+00:00", "meta": {"OBJECT_NAME": "KUIPER-00186", "OBJECT_ID": "2025-301H", "EPOCH": "2025-12-25T22:00:01.999584", "MEAN_MOTION": 15.35002429, "ECCENTRICITY": 0.00076144, "INCLINATION": 51.8684, "RA_OF_ASC_NODE": 61.6205, "ARG_OF_PERICENTER": 130.0723, "MEAN_ANOMALY": 206.3314, "EPHEMERIS_TYPE": 0, "CLASSIFICATION_TYPE": "U", "NORAD_CAT_ID": 67140, "ELEMENT_SET_NO": 999, "REV_AT_EPOCH": 130, "BSTAR": 0.00022778587, "MEAN_MOTION_DOT": 7.483e-05, "MEAN_MOTION_DDOT": 0}, "tle": {"line1": "1 67140U 25301H   25359.91668981  .00007483  00000+0  22779-3 0  9992", "line2": "2 67140  51.8684  61.6205 0007614 130.0723 206.3314 15.35002429  1300"}}, "geometry": {"type": "Point", "coordinates": [61.043843220066854, 1.6911665075154776]}}]}